ONEWEB-0275             
1 48993U 21060AC  24145.71956287  .00000048  00000+0  91880-4 0  9994
2 48993  87.9128  18.7656 0001973  86.6891 273.4466 13.16596450141706
ONEWEB-0276             
1 48994U 21060AD  24145.90480364  .00000884  00000+0  22783-2 0  9996
2 48994  87.9127  18.7245 0001691  85.6862 274.4462 13.16601808141750
ONEWEB-0277             
1 48995U 21060AE  24145.91747174 -.00003913  00000+0 -10269-1 0  9996
2 48995  87.9123  18.7597 0001488  91.1909 268.9392 13.16619997141731
ONEWEB-0278             
1 48996U 21060AF  24145.90797646 -.00000611  00000+0 -16312-2 0  9993
2 48996  87.9130  18.7204 0001419  65.6701 294.4577 13.16585324141886
ONEWEB-0279             
1 48997U 21060AG  24145.68789831  .00000080  00000+0  17587-3 0  9990
2 48997  87.9144  18.7634 0002356 102.9658 257.1736 13.16597060141777
ONEWEB-0280             
1 48998U 21060AH  24145.70214768  .00000192  00000+0  46825-3 0  9997
2 48998  87.9128  18.7607 0002016  82.4997 277.6363 13.16594798141702
ONEWEB-0281             
1 48999U 21060AJ  24145.70847720  .00000125  00000+0  29260-3 0  9998
2 48999  87.9127  18.7614 0001604  84.3684 275.7629 13.16596976141799
ONEWEB-0282             
1 49000U 21060AK  24145.89055737 -.00000281  00000+0 -76891-3 0  9998
2 49000  87.9129  18.7443 0002261  82.2049 277.9339 13.16600660141807
